O3B MPOWER F1           
1 54755U 22174A   24122.31502837 -.00000015  00000+0  00000+0 0  9997
2 54755   0.0650   1.9179 0006735  43.5796 220.6041  5.00114583 26494
